[{"OBJECT_NAME":"STARLINK-35273","OBJECT_ID":"2025-218Q","EPOCH":"2026-03-09T12:44:58.460352","MEAN_MOTION":15.05645582,"ECCENTRICITY":0.00022559,"INCLINATION":97.6026,"RA_OF_ASC_NODE":292.7636,"ARG_OF_PERICENTER":78.5723,"MEAN_ANOMALY":281.5758,"EPHEMERIS_TYPE":0,"CLASSIFICATION_TYPE":"U","NORAD_CAT_ID":65805,"ELEMENT_SET_NO":999,"REV_AT_EPOCH":2494,"BSTAR":0.00038239935,"MEAN_MOTION_DOT":5.461e-5,"MEAN_MOTION_DDOT":0},{"OBJECT_NAME":"COSMOS 2251 DEB","OBJECT_ID":"1993-036AZN","EPOCH":"2026-03-08T04:55:11.679456","MEAN_MOTION":14.74823481,"ECCENTRICITY":0.01364476,"INCLINATION":73.9716,"RA_OF_ASC_NODE":347.1087,"ARG_OF_PERICENTER":142.1945,"MEAN_ANOMALY":218.8911,"EPHEMERIS_TYPE":0,"CLASSIFICATION_TYPE":"U","NORAD_CAT_ID":36385,"ELEMENT_SET_NO":999,"REV_AT_EPOCH":86361,"BSTAR":0.002162243,"MEAN_MOTION_DOT":0.00016854,"MEAN_MOTION_DDOT":0}]
